{
  "norad_id": 59869,
  "name": "STARLINK-31760",
  "history": [
    {
      "epoch": "2026-03-28T14:10:53.258016Z",
      "apogee_km": 483.4800874192306,
      "perigee_km": 482.52501679357647,
      "latitude_deg": -4.8270035483845344e-05,
      "longitude_deg": 132.79289242044544,
      "height_km": 482.6298820235867,
      "semi_major_axis_km": 6861.139552106403,
      "eccentricity": 6.96e-05,
      "inclination_deg": 42.9964,
      "raan_deg": 171.524,
      "arg_perigee_deg": 288.0985,
      "mean_anomaly_deg": 71.979,
      "mean_motion_rev_day": 15.27595544
    },
    {
      "epoch": "2026-03-28T22:01:40.194048Z",
      "apogee_km": 484.00211495297845,
      "perigee_km": 482.0562882182094,
      "latitude_deg": -3.355006829933929e-05,
      "longitude_deg": 12.930402188386564,
      "height_km": 482.1844655007922,
      "semi_major_axis_km": 6861.166201585594,
      "eccentricity": 0.0001418,
      "inclination_deg": 43.002,
      "raan_deg": 169.6793,
      "arg_perigee_deg": 309.7018,
      "mean_anomaly_deg": 50.3708,
      "mean_motion_rev_day": 15.27586644
    },
    {
      "epoch": "2026-03-30T05:24:48.896352Z",
      "apogee_km": 483.93949756084294,
      "perigee_km": 482.1871469985326,
      "latitude_deg": 1.0220661323480605e-05,
      "longitude_deg": -106.53127697531373,
      "height_km": 482.5985932060639,
      "semi_major_axis_km": 6861.2003222796875,
      "eccentricity": 0.0001277,
      "inclination_deg": 42.999,
      "raan_deg": 162.2928,
      "arg_perigee_deg": 285.9797,
      "mean_anomaly_deg": 74.0914,
      "mean_motion_rev_day": 15.27575249
    },
    {
      "epoch": "2026-03-30T05:24:48.897216Z",
      "apogee_km": 483.93956617284493,
      "perigee_km": 482.1870783865297,
      "latitude_deg": 1.0976754068637018e-05,
      "longitude_deg": -106.53127977881421,
      "height_km": 482.59857432011387,
      "semi_major_axis_km": 6861.2003222796875,
      "eccentricity": 0.00012771,
      "inclination_deg": 42.999,
      "raan_deg": 162.2928,
      "arg_perigee_deg": 285.9797,
      "mean_anomaly_deg": 74.0914,
      "mean_motion_rev_day": 15.27575249
    },
    {
      "epoch": "2026-03-30T13:15:35.706240Z",
      "apogee_km": 483.69845731893383,
      "perigee_km": 482.3721927085089,
      "latitude_deg": 2.37241333084634e-06,
      "longitude_deg": 133.60803625987916,
      "height_km": 482.7789894036878,
      "semi_major_axis_km": 6861.172325013721,
      "eccentricity": 9.665e-05,
      "inclination_deg": 42.9996,
      "raan_deg": 160.4494,
      "arg_perigee_deg": 272.8199,
      "mean_anomaly_deg": 87.2542,
      "mean_motion_rev_day": 15.27584599
    },
    {
      "epoch": "2026-03-31T20:38:43.210176Z",
      "apogee_km": 483.78488040489356,
      "perigee_km": 482.30698160155407,
      "latitude_deg": -2.570586268685842e-05,
      "longitude_deg": 14.149488331008515,
      "height_km": 482.7740786017812,
      "semi_major_axis_km": 6861.1829310032235,
      "eccentricity": 0.0001077,
      "inclination_deg": 42.9965,
      "raan_deg": 153.0611,
      "arg_perigee_deg": 273.7164,
      "mean_anomaly_deg": 86.3564,
      "mean_motion_rev_day": 15.27581057
    },
    {
      "epoch": "2026-04-01T12:20:17.679264Z",
      "apogee_km": 483.6464288753932,
      "perigee_km": 482.5019788465888,
      "latitude_deg": -7.674964892929312e-06,
      "longitude_deg": 134.42430236048892,
      "height_km": 482.9337474584552,
      "semi_major_axis_km": 6861.21120386099,
      "eccentricity": 8.34e-05,
      "inclination_deg": 43.004,
      "raan_deg": 149.374,
      "arg_perigee_deg": 261.6696,
      "mean_anomaly_deg": 98.4061,
      "mean_motion_rev_day": 15.27571615
    },
    {
      "epoch": "2026-04-02T11:52:37.803072Z",
      "apogee_km": 483.6432045277579,
      "perigee_km": 482.40284401857025,
      "latitude_deg": 3.214284011808216e-05,
      "longitude_deg": 134.83098733869954,
      "height_km": 482.69303296433264,
      "semi_major_axis_km": 6861.160024273164,
      "eccentricity": 9.039e-05,
      "inclination_deg": 43.0001,
      "raan_deg": 143.8312,
      "arg_perigee_deg": 279.867,
      "mean_anomaly_deg": 80.208,
      "mean_motion_rev_day": 15.27588707
    },
    {
      "epoch": "2026-04-03T11:24:57.885408Z",
      "apogee_km": 483.6758516276486,
      "perigee_km": 482.2986867643349,
      "latitude_deg": -1.7869308771039584e-05,
      "longitude_deg": 135.24294916588624,
      "height_km": 482.5692475334503,
      "semi_major_axis_km": 6861.1242691959915,
      "eccentricity": 0.00010036,
      "inclination_deg": 43.0011,
      "raan_deg": 138.2936,
      "arg_perigee_deg": 286.4072,
      "mean_anomaly_deg": 73.6669,
      "mean_motion_rev_day": 15.27600648
    },
    {
      "epoch": "2026-04-04T12:31:29.345952Z",
      "apogee_km": 484.1444452049909,
      "perigee_km": 482.06329362448014,
      "latitude_deg": -5.488826249546256e-05,
      "longitude_deg": 111.66934428136904,
      "height_km": 482.68731848751037,
      "semi_major_axis_km": 6861.240869414735,
      "eccentricity": 0.00015166,
      "inclination_deg": 43.0006,
      "raan_deg": 132.3823,
      "arg_perigee_deg": 280.7128,
      "mean_anomaly_deg": 79.3552,
      "mean_motion_rev_day": 15.27561708
    },
    {
      "epoch": "2026-04-05T10:29:41.462016Z",
      "apogee_km": 483.78593255057604,
      "perigee_km": 482.3564684340854,
      "latitude_deg": 1.0381045789007144e-05,
      "longitude_deg": 136.0459518853355,
      "height_km": 482.6498079306235,
      "semi_major_axis_km": 6861.20820049233,
      "eccentricity": 0.00010417,
      "inclination_deg": 43.0002,
      "raan_deg": 127.2116,
      "arg_perigee_deg": 286.0664,
      "mean_anomaly_deg": 74.0073,
      "mean_motion_rev_day": 15.27572618
    },
    {
      "epoch": "2026-04-05T18:20:28.404096Z",
      "apogee_km": 483.8233935347298,
      "perigee_km": 482.27825403681254,
      "latitude_deg": 2.0079684371268998e-05,
      "longitude_deg": 16.182030561873837,
      "height_km": 482.51250990279067,
      "semi_major_axis_km": 6861.187823785771,
      "eccentricity": 0.0001126,
      "inclination_deg": 43.0005,
      "raan_deg": 125.3655,
      "arg_perigee_deg": 294.0458,
      "mean_anomaly_deg": 66.0276,
      "mean_motion_rev_day": 15.27579423
    },
    {
      "epoch": "2026-04-06T02:11:15.159552Z",
      "apogee_km": 483.7969457938707,
      "perigee_km": 482.2586726436439,
      "latitude_deg": -1.1618231285610999e-05,
      "longitude_deg": -103.68155524172127,
      "height_km": 482.47852909980327,
      "semi_major_axis_km": 6861.164809218757,
      "eccentricity": 0.0001121,
      "inclination_deg": 43.0003,
      "raan_deg": 123.519,
      "arg_perigee_deg": 295.0561,
      "mean_anomaly_deg": 65.0174,
      "mean_motion_rev_day": 15.27587109
    },
    {
      "epoch": "2026-04-07T11:08:33.498240Z",
      "apogee_km": 483.58320430269396,
      "perigee_km": 482.6539158496362,
      "latitude_deg": 2.881505982210828e-05,
      "longitude_deg": 112.8844554385717,
      "height_km": 482.8371749818182,
      "semi_major_axis_km": 6861.255560076164,
      "eccentricity": 6.772e-05,
      "inclination_deg": 43.0006,
      "raan_deg": 115.7648,
      "arg_perigee_deg": 277.1113,
      "mean_anomaly_deg": 82.9662,
      "mean_motion_rev_day": 15.27556802
    },
    {
      "epoch": "2026-04-08T07:32:35.746368Z",
      "apogee_km": 483.5506613991711,
      "perigee_km": 482.536990543942,
      "latitude_deg": 1.8304629377886216e-05,
      "longitude_deg": 161.2382506106836,
      "height_km": 482.7525495854545,
      "semi_major_axis_km": 6861.180825971556,
      "eccentricity": 7.387e-05,
      "inclination_deg": 43.0026,
      "raan_deg": 110.9658,
      "arg_perigee_deg": 277.6752,
      "mean_anomaly_deg": 82.4016,
      "mean_motion_rev_day": 15.2758176
    },
    {
      "epoch": "2026-04-09T00:48:18.161856Z",
      "apogee_km": 483.4928216987755,
      "perigee_km": 482.4650265333439,
      "latitude_deg": -2.959376218743982e-06,
      "longitude_deg": -102.45922167886197,
      "height_km": 482.71739012387997,
      "semi_major_axis_km": 6861.115924116059,
      "eccentricity": 7.49e-05,
      "inclination_deg": 43.0026,
      "raan_deg": 106.904,
      "arg_perigee_deg": 274.236,
      "mean_anomaly_deg": 85.8406,
      "mean_motion_rev_day": 15.27603435
    },
    {
      "epoch": "2026-04-10T06:37:15.470400Z",
      "apogee_km": 483.23478116411115,
      "perigee_km": 482.80527273422376,
      "latitude_deg": 5.036740508161551e-05,
      "longitude_deg": 162.05814984072703,
      "height_km": 482.89565900467124,
      "semi_major_axis_km": 6861.157026949167,
      "eccentricity": 3.13e-05,
      "inclination_deg": 42.9981,
      "raan_deg": 99.8846,
      "arg_perigee_deg": 117.977,
      "mean_anomaly_deg": 242.1114,
      "mean_motion_rev_day": 15.27589708
    },
    {
      "epoch": "2026-04-11T07:43:46.346016Z",
      "apogee_km": 483.5872355749807,
      "perigee_km": 482.55393771243234,
      "latitude_deg": -2.167552229410656e-05,
      "longitude_deg": 138.48884977974845,
      "height_km": 482.83311125620907,
      "semi_major_axis_km": 6861.207586643706,
      "eccentricity": 7.53e-05,
      "inclination_deg": 42.999,
      "raan_deg": 93.9752,
      "arg_perigee_deg": 271.498,
      "mean_anomaly_deg": 88.5785,
      "mean_motion_rev_day": 15.27572823
    },
    {
      "epoch": "2026-04-13T05:14:18.492576Z",
      "apogee_km": 483.60877275277016,
      "perigee_km": 482.4991809479943,
      "latitude_deg": 2.6840909266219206e-06,
      "longitude_deg": 163.27914499494835,
      "height_km": 482.83587507235404,
      "semi_major_axis_km": 6861.190976850382,
      "eccentricity": 8.086e-05,
      "inclination_deg": 43.0012,
      "raan_deg": 83.2684,
      "arg_perigee_deg": 269.424,
      "mean_anomaly_deg": 90.6519,
      "mean_motion_rev_day": 15.2757837
    }
  ]
}